COMMENT,ORIGINATOR,NORAD_CAT_ID,OBJECT_NAME,OBJECT_TYPE,CLASSIFICATION_TYPE,INTLDES,EPOCH,EPOCH_MICROSECONDS,MEAN_MOTION,ECCENTRICITY,INCLINATION,RA_OF_ASC_NODE,ARG_OF_PERICENTER,MEAN_ANOMALY,EPHEMERIS_TYPE,ELEMENT_SET_NO,REV_AT_EPOCH,BSTAR,MEAN_MOTION_DOT,MEAN_MOTION_DDOT,FILE,TLE_LINE0,TLE_LINE1,TLE_LINE2,OBJECT_ID,OBJECT_NUMBER,SEMIMAJOR_AXIS,PERIOD,APOGEE,PERIGEE,DECAYED,date
GENERATED VIA SPACETRACK.ORG API,18 SPCS,48890,SPACEBEE-104,PAYLOAD,U,21059M,2023/3/30 7:48,753568,15.26795924,0.0008008,97.5821,224.6442,194.1387,165.9629,0,999,9734,0.0017685,0.00046787,0,3875726,0 SPACEBEE-104,1 48890U 21059M   23089.32503187  .00046787  00000-0  17685-2 0  9998,2 48890  97.5821 224.6442 0008008 194.1387 165.9629 15.26795924 97347,2021-059M,48890,6863.535,94.315,490.896,479.904,0,
GENERATED VIA SPACETRACK.ORG API,18 SPCS,48890,SPACEBEE-104,PAYLOAD,U,21059M,2023/3/31 8:58,247008,15.2690028,0.0008113,97.5779,225.7061,196.5391,163.5667,0,999,9750,0.0018514,0.00049155,0,3876086,0 SPACEBEE-104,1 48890U 21059M   23090.37361397  .00049155  00000-0  18514-2 0  9994,2 48890  97.5779 225.7061 0008113 196.5391 163.5667 15.26900280 97503,2021-059M,48890,6863.222,94.309,490.655,479.519,0,
GENERATED VIA SPACETRACK.ORG API,18 SPCS,48890,SPACEBEE-104,PAYLOAD,U,21059M,2023/4/1 8:33,991168,15.26990949,0.0007959,97.5825,226.7079,187.0252,173.0876,0,999,9765,0.0017406,0.00046316,0,3877270,0 SPACEBEE-104,1 48890U 21059M   23091.35659712  .00046316  00000-0  17406-2 0  9999,2 48890  97.5825 226.7079 0007959 187.0252 173.0876 15.26990949 97658,2021-059M,48890,6862.95,94.303,490.278,479.353,0,
GENERATED VIA SPACETRACK.ORG API,18 SPCS,48890,SPACEBEE-104,PAYLOAD,U,21059M,2023/4/1 19:34,318304,15.27026582,0.0007957,97.5824,227.174,185.9536,174.1609,0,999,9772,0.0016025,0.00042661,0,3877516,0 SPACEBEE-104,1 48890U 21059M   23091.81530461  .00042661  00000-0  16025-2 0  9994,2 48890  97.5824 227.1740 0007957 185.9536 174.1609 15.27026582 97725,2021-059M,48890,6862.844,94.301,490.169,479.248,0,
GENERATED VIA SPACETRACK.ORG API,18 SPCS,48890,SPACEBEE-104,PAYLOAD,U,21059M,2023/4/2 8:08,96512,15.27073808,0.0007932,97.5825,227.7066,184.8261,175.2902,0,999,9780,0.0017303,0.00046156,0,3877772,0 SPACEBEE-104,1 48890U 21059M   23092.33952658  .00046156  00000-0  17303-2 0  9991,2 48890  97.5825 227.7066 0007932 184.8261 175.2902 15.27073808 97809,2021-059M,48890,6862.702,94.298,490.011,479.124,0,
GENERATED VIA SPACETRACK.ORG API,18 SPCS,48890,SPACEBEE-104,PAYLOAD,U,21059M,2023/4/2 20:43,554528,15.27113663,0.0007887,97.5824,228.2389,183.3603,176.7583,0,999,9788,0.0014141,0.0003771,0,3878419,0 SPACEBEE-104,1 48890U 21059M   23092.86373327  .00037710  00000-0  14141-2 0  9992,2 48890  97.5824 228.2389 0007887 183.3603 176.7583 15.27113663 97888,2021-059M,48890,6862.583,94.296,489.86,479.035,0,
GENERATED VIA SPACETRACK.ORG API,18 SPCS,48890,SPACEBEE-104,PAYLOAD,U,21059M,2023/4/3 7:44,542304,15.27154939,0.0007878,97.5827,228.7052,181.7403,178.3809,0,999,9795,0.0016031,0.00042843,0,3878927,0 SPACEBEE-104,1 48890U 21059M   23093.32240211  .00042843  00000-0  16031-2 0  9992,2 48890  97.5827 228.7052 0007878 181.7403 178.3809 15.27154939 97951,2021-059M,48890,6862.459,94.293,489.73,478.918,0,
GENERATED VIA SPACETRACK.ORG API,18 SPCS,48890,SPACEBEE-104,PAYLOAD,U,21059M,2023/4/3 7:44,542304,15.27154939,0.0007878,97.5827,228.7052,181.7403,178.3809,0,999,9795,0.0016031,0.00042843,0,3879059,0 SPACEBEE-104,1 48890U 21059M   23093.32240211  .00042843  00000-0  16031-2 0  9992,2 48890  97.5827 228.7052 0007878 181.7403 178.3809 15.27154939 97951,2021-059M,48890,6862.459,94.293,489.73,478.918,0,
GENERATED VIA SPACETRACK.ORG API,18 SPCS,48890,SPACEBEE-104,PAYLOAD,U,21059M,2023/4/4 8:53,311840,15.27244312,0.0007894,97.5835,229.7707,177.6097,182.5181,0,999,9811,0.0016195,0.00043403,0,3879889,0 SPACEBEE-104,1 48890U 21059M   23094.37074435  .00043403  00000-0  16195-2 0  9995,2 48890  97.5835 229.7707 0007894 177.6097 182.5181 15.27244312 98113,2021-059M,48890,6862.191,94.287,489.473,478.639,0,
GENERATED VIA SPACETRACK.ORG API,18 SPCS,48890,SPACEBEE-104,PAYLOAD,U,21059M,2023/4/4 8:53,311840,15.27244312,0.0007894,97.5835,229.7707,177.6097,182.5181,0,999,9811,0.0016195,0.00043403,0,3879974,0 SPACEBEE-104,1 48890U 21059M   23094.37074435  .00043403  00000-0  16195-2 0  9995,2 48890  97.5835 229.7707 0007894 177.6097 182.5181 15.27244312 98113,2021-059M,48890,6862.191,94.287,489.473,478.639,0,
GENERATED VIA SPACETRACK.ORG API,18 SPCS,48890,SPACEBEE-104,PAYLOAD,U,21059M,2023/4/4 21:28,737920,15.27283156,0.0007894,97.5839,230.3035,176.0012,184.1291,0,999,9819,0.0013628,0.00036521,0,3880211,0 SPACEBEE-104,1 48890U 21059M   23094.89489280  .00036521  00000-0  13628-2 0  9991,2 48890  97.5839 230.3035 0007894 176.0012 184.1291 15.27283156 98196,2021-059M,48890,6862.075,94.285,489.357,478.523,0,
GENERATED VIA SPACETRACK.ORG API,18 SPCS,48890,SPACEBEE-104,PAYLOAD,U,21059M,2023/4/5 8:29,372864,15.27321166,0.0007876,97.584,230.7696,174.5108,185.6218,0,999,9826,0.0014948,0.00040131,0,3880853,0 SPACEBEE-104,1 48890U 21059M   23095.35351126  .00040131  00000-0  14948-2 0  9998,2 48890  97.5840 230.7696 0007876 174.5108 185.6218 15.27321166 98261,2021-059M,48890,6861.961,94.283,489.231,478.422,0,
GENERATED VIA SPACETRACK.ORG API,18 SPCS,48890,SPACEBEE-104,PAYLOAD,U,21059M,2023/4/5 21:03,529216,15.27361259,0.0007866,97.5842,231.3024,173.0072,187.1278,0,999,9834,0.0014153,0.00038028,0,3881153,0 SPACEBEE-104,1 48890U 21059M   23095.87763344  .00038028  00000-0  14153-2 0  9994,2 48890  97.5842 231.3024 0007866 173.0072 187.1278 15.27361259 98347,2021-059M,48890,6861.841,94.28,489.104,478.309,0,
GENERATED VIA SPACETRACK.ORG API,18 SPCS,48890,SPACEBEE-104,PAYLOAD,U,21059M,2023/4/5 22:38,960416,15.27365832,0.0007867,97.5839,231.3689,172.9489,187.1862,0,999,9835,0.0014027,0.00037692,0,3881095,0 SPACEBEE-104,1 48890U 21059M   23095.94314769  .00037692  00000-0  14027-2 0  9991,2 48890  97.5839 231.3689 0007867 172.9489 187.1862 15.27365832 98352,2021-059M,48890,6861.827,94.28,489.091,478.294,0,
GENERATED VIA SPACETRACK.ORG API,18 SPCS,48890,SPACEBEE-104,PAYLOAD,U,21059M,2023/4/6 8:04,206336,15.27395156,0.0007834,97.5841,231.7685,171.9077,188.2289,0,999,9841,0.0013971,0.00037574,0,3881771,0 SPACEBEE-104,1 48890U 21059M   23096.33622924  .00037574  00000-0  13971-2 0  9996,2 48890  97.5841 231.7685 0007834 171.9077 188.2289 15.27395156 98415,2021-059M,48890,6861.74,94.278,488.98,478.229,0,
GENERATED VIA SPACETRACK.ORG API,18 SPCS,48890,SPACEBEE-104,PAYLOAD,U,21059M,2023/4/6 19:04,976256,15.27429613,0.0007826,97.5843,232.2347,170.1957,189.9436,0,999,9848,0.0013538,0.00036439,0,3882049,0 SPACEBEE-104,1 48890U 21059M   23096.79481454  .00036439  00000-0  13538-2 0  9995,2 48890  97.5843 232.2347 0007826 170.1957 189.9436 15.27429613 98482,2021-059M,48890,6861.636,94.276,488.871,478.132,0,
GENERATED VIA SPACETRACK.ORG API,18 SPCS,48890,SPACEBEE-104,PAYLOAD,U,21059M,2023/4/7 7:39,836448,15.27472561,0.0007777,97.5845,232.7674,168.6056,191.536,0,999,9856,0.0014614,0.00039408,0,3882550,0 SPACEBEE-104,1 48890U 21059M   23097.31889857  .00039408  00000-0  14614-2 0  9998,2 48890  97.5845 232.7674 0007777 168.6056 191.5360 15.27472561 98563,2021-059M,48890,6861.508,94.273,488.709,478.037,0,
GENERATED VIA SPACETRACK.ORG API,18 SPCS,48890,SPACEBEE-104,PAYLOAD,U,21059M,2023/4/7 7:39,836448,15.27472561,0.0007777,97.5845,232.7674,168.6056,191.536,0,999,9856,0.0014614,0.00039408,0,3882626,0 SPACEBEE-104,1 48890U 21059M   23097.31889857  .00039408  00000-0  14614-2 0  9998,2 48890  97.5845 232.7674 0007777 168.6056 191.5360 15.27472561 98563,2021-059M,48890,6861.508,94.273,488.709,478.037,0,
GENERATED VIA SPACETRACK.ORG API,18 SPCS,48890,SPACEBEE-104,PAYLOAD,U,21059M,2023/4/8 8:48,20480,15.27550307,0.0007796,97.5847,233.8332,164.3402,195.8079,0,999,9872,0.0013342,0.0003604,0,3883447,0 SPACEBEE-104,1 48890U 21059M   23098.36702570  .00036040  00000-0  13342-2 0  9996,2 48890  97.5847 233.8332 0007796 164.3402 195.8079 15.27550307 98724,2021-059M,48890,6861.275,94.269,488.489,477.791,0,
GENERATED VIA SPACETRACK.ORG API,18 SPCS,48890,SPACEBEE-104,PAYLOAD,U,21059M,2023/4/8 8:48,20480,15.27550307,0.0007796,97.5847,233.8332,164.3402,195.8079,0,999,9872,0.0013342,0.0003604,0,3883527,0 SPACEBEE-104,1 48890U 21059M   23098.36702570  .00036040  00000-0  13342-2 0  9996,2 48890  97.5847 233.8332 0007796 164.3402 195.8079 15.27550307 98724,2021-059M,48890,6861.275,94.269,488.489,477.791,0,
GENERATED VIA SPACETRACK.ORG API,18 SPCS,48890,SPACEBEE-104,PAYLOAD,U,21059M,2023/4/9 8:23,213632,15.27620545,0.0007775,97.5848,234.8323,161.479,198.6733,0,999,9887,0.0013216,0.00035774,0,3884332,0 SPACEBEE-104,1 48890U 21059M   23099.34959738  .00035774  00000-0  13216-2 0  9998,2 48890  97.5848 234.8323 0007775 161.4790 198.6733 15.27620545 98877,2021-059M,48890,6861.065,94.264,488.264,477.595,0,
GENERATED VIA SPACETRACK.ORG API,18 SPCS,48890,SPACEBEE-104,PAYLOAD,U,21059M,2023/4/9 19:23,226720,15.27651243,0.0007753,97.5849,235.2987,159.9836,200.1708,0,999,9894,0.0012575,0.00034059,0,3884566,0 SPACEBEE-104,1 48890U 21059M   23099.80811605  .00034059  00000-0  12575-2 0  9991,2 48890  97.5849 235.2987 0007753 159.9836 200.1708 15.27651243 98946,2021-059M,48890,6860.973,94.262,488.157,477.518,0,
GENERATED VIA SPACETRACK.ORG API,18 SPCS,48890,SPACEBEE-104,PAYLOAD,U,21059M,2023/4/9 19:23,226720,15.27651243,0.0007753,97.5849,235.2987,159.9836,200.1708,0,999,9894,0.0012575,0.00034059,0,3884641,0 SPACEBEE-104,1 48890U 21059M   23099.80811605  .00034059  00000-0  12575-2 0  9991,2 48890  97.5849 235.2987 0007753 159.9836 200.1708 15.27651243 98946,2021-059M,48890,6860.973,94.262,488.157,477.518,0,
